STARLINK-5660
1 55335U 23013E   26090.83335647  .00802051  00000+0  28212-1 0  9997
2 55335  43.0007 178.3318 0001711 267.9021 330.7217 15.26049833  5813
